[Satellite]
VERSION=1.1
NAME=GPS BIIRM-2 (PRN 31)
NICKNAME=GPS BIIRM-2 (PRN 31)
TLE1=1 29486U 06042A   15055.48822311 -.00000074  00000-0  00000+0 0  9997
TLE2=2 29486  55.9247 315.9216 0083819 327.4647 210.1407  2.00556388 61696
